STARLINK-3191           
1 49770U 21115AY  26068.47093372 -.00000594  00000+0 -19205-4 0  9994
2 49770  53.2176 140.1532 0001358  89.6849 270.4299 15.08837440236767
DISKSAT B               
1 67220U 25305B   26068.81497770  .00012481  00000+0  82401-3 0  9990
2 67220  45.0018 250.2098 0003783 311.4052  48.6498 15.07484556 12311
